STARLINK-1351           
1 45697U 20035AS  26068.13970887  .00110196  00000+0  17672-2 0  9998
2 45697  53.0537  24.2744 0003591 121.7896 238.3464 15.52242010319286
CORAL                   
1 67685U 98067YB  26068.40126969  .00044538  00000+0  72424-3 0  9996
2 67685  51.6314  73.2314 0011354 181.5585 178.5371 15.52162760  4743
