[{"OBJECT_NAME":"STARLINK-1351","OBJECT_ID":"2020-035AS","EPOCH":"2026-03-09T03:21:10.846368","MEAN_MOTION":15.5224201,"ECCENTRICITY":0.00035916,"INCLINATION":53.0537,"RA_OF_ASC_NODE":24.2744,"ARG_OF_PERICENTER":121.7896,"MEAN_ANOMALY":238.3464,"EPHEMERIS_TYPE":0,"CLASSIFICATION_TYPE":"U","NORAD_CAT_ID":45697,"ELEMENT_SET_NO":999,"REV_AT_EPOCH":31928,"BSTAR":0.0017671716,"MEAN_MOTION_DOT":0.00110196,"MEAN_MOTION_DDOT":0},{"OBJECT_NAME":"CORAL","OBJECT_ID":"1998-067YB","EPOCH":"2026-03-09T09:37:49.701216","MEAN_MOTION":15.5216276,"ECCENTRICITY":0.00113549,"INCLINATION":51.6314,"RA_OF_ASC_NODE":73.2314,"ARG_OF_PERICENTER":181.5585,"MEAN_ANOMALY":178.5371,"EPHEMERIS_TYPE":0,"CLASSIFICATION_TYPE":"U","NORAD_CAT_ID":67685,"ELEMENT_SET_NO":999,"REV_AT_EPOCH":474,"BSTAR":0.00072424335,"MEAN_MOTION_DOT":0.00044538,"MEAN_MOTION_DDOT":0}]
